[{"OBJECT_NAME":"HST","OBJECT_ID":"1990-037B","EPOCH":"2026-03-09T03:50:04.164288","MEAN_MOTION":15.29473555,"ECCENTRICITY":0.00018372,"INCLINATION":28.4717,"RA_OF_ASC_NODE":43.6133,"ARG_OF_PERICENTER":120.9992,"MEAN_ANOMALY":239.0785,"EPHEMERIS_TYPE":0,"CLASSIFICATION_TYPE":"U","NORAD_CAT_ID":20580,"ELEMENT_SET_NO":999,"REV_AT_EPOCH":77323,"BSTAR":0.0003002261,"MEAN_MOTION_DOT":9.063e-5,"MEAN_MOTION_DDOT":0},{"OBJECT_NAME":"STARLINK-34349","OBJECT_ID":"2025-117N","EPOCH":"2026-03-09T08:30:39.643200","MEAN_MOTION":15.30200792,"ECCENTRICITY":0.00013905,"INCLINATION":53.16,"RA_OF_ASC_NODE":41.2132,"ARG_OF_PERICENTER":100.631,"MEAN_ANOMALY":259.4847,"EPHEMERIS_TYPE":0,"CLASSIFICATION_TYPE":"U","NORAD_CAT_ID":64215,"ELEMENT_SET_NO":999,"REV_AT_EPOCH":4447,"BSTAR":0.00093324678,"MEAN_MOTION_DOT":0.00027383,"MEAN_MOTION_DDOT":0}]
